{"type": "FeatureCollection", "features": [ {"type": "Feature", "properties": {"norad_id": 66578, "name": "STARLINK-35743", "group": "last-30-days", "lat": -38.6625118126205, "lon": 50.47075650308225, "alt_km": 416.6246419729232, "timestamp": "2025-12-14T16:47:39.436894+00:00", "meta": {"OBJECT_NAME": "STARLINK-35743", "OBJECT_ID": "2025-268X", "EPOCH": "2025-12-13T17:53:34.638720", "MEAN_MOTION": 15.50625412, "ECCENTRICITY": 0.00013233, "INCLINATION": 42.9997, "RA_OF_ASC_NODE": 115.215, "ARG_OF_PERICENTER": 330.5178, "MEAN_ANOMALY": 29.5607, "EPHEMERIS_TYPE": 0, "CLASSIFICATION_TYPE": "U", "NORAD_CAT_ID": 66578, "ELEMENT_SET_NO": 999, "REV_AT_EPOCH": 478, "BSTAR": 0.0024358562, "MEAN_MOTION_DOT": 0.00145485, "MEAN_MOTION_DDOT": 0}, "tle": {"line1": "1 66578U 25268X   25347.74553980  .00145485  00000+0  24359-2 0  9998", "line2": "2 66578  42.9997 115.2150 0001323 330.5178  29.5607 15.50625412  4784"}}, "geometry": {"type": "Point", "coordinates": [50.47075650308225, -38.6625118126205]}}, {"type": "Feature", "properties": {"norad_id": 66579, "name": "STARLINK-35868", "group": "last-30-days", "lat": -38.00896782520173, "lon": 52.62176247092555, "alt_km": 416.1476056324864, "timestamp": "2025-12-14T16:47:39.436904+00:00", "meta": {"OBJECT_NAME": "STARLINK-35868", "OBJECT_ID": "2025-268Y", "EPOCH": "2025-12-13T17:53:04.593984", "MEAN_MOTION": 15.50606269, "ECCENTRICITY": 0.00020071, "INCLINATION": 42.9997, "RA_OF_ASC_NODE": 115.2115, "ARG_OF_PERICENTER": 269.3603, "MEAN_ANOMALY": 90.7027, "EPHEMERIS_TYPE": 0, "CLASSIFICATION_TYPE": "U", "NORAD_CAT_ID": 66579, "ELEMENT_SET_NO": 999, "REV_AT_EPOCH": 478, "BSTAR": 0.0021078102, "MEAN_MOTION_DOT": 0.00125438, "MEAN_MOTION_DDOT": 0}, "tle": {"line1": "1 66579U 25268Y   25347.74519206  .00125438  00000+0  21078-2 0  9993", "line2": "2 66579  42.9997 115.2115 0002007 269.3603  90.7027 15.50606269  4783"}}, "geometry": {"type": "Point", "coordinates": [52.62176247092555, -38.00896782520173]}}, {"type": "Feature", "properties": {"norad_id": 66580, "name": "STARLINK-35872", "group": "last-30-days", "lat": -37.272508165897214, "lon": 54.866547021091996, "alt_km": 415.98913196405465, "timestamp": "2025-12-14T16:47:39.436913+00:00", "meta": {"OBJECT_NAME": "STARLINK-35872", "OBJECT_ID": "2025-268Z", "EPOCH": "2025-12-13T17:52:35.051232", "MEAN_MOTION": 15.50609024, "ECCENTRICITY": 0.00020363, "INCLINATION": 43, "RA_OF_ASC_NODE": 115.2102, "ARG_OF_PERICENTER": 286.0512, "MEAN_ANOMALY": 74.0124, "EPHEMERIS_TYPE": 0, "CLASSIFICATION_TYPE": "U", "NORAD_CAT_ID": 66580, "ELEMENT_SET_NO": 999, "REV_AT_EPOCH": 478, "BSTAR": 0.0021765096, "MEAN_MOTION_DOT": 0.0012962, "MEAN_MOTION_DDOT": 0}, "tle": {"line1": "1 66580U 25268Z   25347.74485013  .00129620  00000+0  21765-2 0  9993", "line2": "2 66580  43.0000 115.2102 0002036 286.0512  74.0124 15.50609024  4780"}}, "geometry": {"type": "Point", "coordinates": [54.866547021091996, -37.272508165897214]}}, {"type": "Feature", "properties": {"norad_id": 66581, "name": "STARLINK-35744", "group": "last-30-days", "lat": -36.55612472443522, "lon": 56.89690347949052, "alt_km": 416.5564093531948, "timestamp": "2025-12-14T16:47:39.436923+00:00", "meta": {"OBJECT_NAME": "STARLINK-35744", "OBJECT_ID": "2025-268AA", "EPOCH": "2025-12-13T17:52:05.695104", "MEAN_MOTION": 15.50589639, "ECCENTRICITY": 0.00013654, "INCLINATION": 43.0004, "RA_OF_ASC_NODE": 115.2077, "ARG_OF_PERICENTER": 297.9166, "MEAN_ANOMALY": 62.1555, "EPHEMERIS_TYPE": 0, "CLASSIFICATION_TYPE": "U", "NORAD_CAT_ID": 66581, "ELEMENT_SET_NO": 999, "REV_AT_EPOCH": 478, "BSTAR": 0.0018813666, "MEAN_MOTION_DOT": 0.00111658, "MEAN_MOTION_DDOT": 0}, "tle": {"line1": "1 66581U 25268AA  25347.74451036  .00111658  00000+0  18814-2 0  9995", "line2": "2 66581  43.0004 115.2077 0001365 297.9166  62.1555 15.50589639  4781"}}, "geometry": {"type": "Point", "coordinates": [56.89690347949052, -36.55612472443522]}}, {"type": "Feature", "properties": {"norad_id": 66582, "name": "STARLINK-35746", "group": "last-30-days", "lat": -35.85420617525669, "lon": 58.76097682196086, "alt_km": 416.7407552088662, "timestamp": "2025-12-14T16:47:39.436933+00:00", "meta": {"OBJECT_NAME": "STARLINK-35746", "OBJECT_ID": "2025-268AB", "EPOCH": "2025-12-13T17:51:35.725536", "MEAN_MOTION": 15.5051855, "ECCENTRICITY": 0.0001613, "INCLINATION": 42.9999, "RA_OF_ASC_NODE": 115.2041, "ARG_OF_PERICENTER": 266.043, "MEAN_ANOMALY": 94.0246, "EPHEMERIS_TYPE": 0, "CLASSIFICATION_TYPE": "U", "NORAD_CAT_ID": 66582, "ELEMENT_SET_NO": 999, "REV_AT_EPOCH": 478, "BSTAR": 0.0017137885, "MEAN_MOTION_DOT": 0.0010129, "MEAN_MOTION_DDOT": 0}, "tle": {"line1": "1 66582U 25268AB  25347.74416349  .00101290  00000+0  17138-2 0  9993", "line2": "2 66582  42.9999 115.2041 0001613 266.0430  94.0246 15.50518550  4786"}}, "geometry": {"type": "Point", "coordinates": [58.76097682196086, -35.85420617525669]}}, {"type": "Feature", "properties": {"norad_id": 66583, "name": "STARLINK-35941", "group": "last-30-days", "lat": -34.99525113195916, "lon": 60.90675139544484, "alt_km": 416.6764968318739, "timestamp": "2025-12-14T16:47:39.436942+00:00", "meta": {"OBJECT_NAME": "STARLINK-35941", "OBJECT_ID": "2025-268AC", "EPOCH": "2025-12-13T17:51:04.180032", "MEAN_MOTION": 15.50496485, "ECCENTRICITY": 0.00022059, "INCLINATION": 43.0002, "RA_OF_ASC_NODE": 115.2012, "ARG_OF_PERICENTER": 251.6493, "MEAN_ANOMALY": 108.4127, "EPHEMERIS_TYPE": 0, "CLASSIFICATION_TYPE": "U", "NORAD_CAT_ID": 66583, "ELEMENT_SET_NO": 999, "REV_AT_EPOCH": 478, "BSTAR": 0.0016451468, "MEAN_MOTION_DOT": 0.00097093, "MEAN_MOTION_DDOT": 0}, "tle": {"line1": "1 66583U 25268AC  25347.74379838  .00097093  00000+0  16451-2 0  9997", "line2": "2 66583  43.0002 115.2012 0002205 251.6493 108.4127 15.50496485  4789"}}, "geometry": {"type": "Point", "coordinates": [60.90675139544484, -34.99525113195916]}}, {"type": "Feature", "properties": {"norad_id": 66584, "name": "STARLINK-35939", "group": "last-30-days", "lat": -34.068366520581534, "lon": 63.075891122987095, "alt_km": 415.9632539460945, "timestamp": "2025-12-14T16:47:39.436952+00:00", "meta": {"OBJECT_NAME": "STARLINK-35939", "OBJECT_ID": "2025-268AD", "EPOCH": "2025-12-13T17:50:36.078432", "MEAN_MOTION": 15.50522655, "ECCENTRICITY": 0.00026586, "INCLINATION": 43.0001, "RA_OF_ASC_NODE": 115.1986, "ARG_OF_PERICENTER": 262.3879, "MEAN_ANOMALY": 97.6679, "EPHEMERIS_TYPE": 0, "CLASSIFICATION_TYPE": "U", "NORAD_CAT_ID": 66584, "ELEMENT_SET_NO": 999, "REV_AT_EPOCH": 478, "BSTAR": 0.002246489, "MEAN_MOTION_DOT": 0.00133458, "MEAN_MOTION_DDOT": 0}, "tle": {"line1": "1 66584U 25268AD  25347.74347313  .00133458  00000+0  22465-2 0  9999", "line2": "2 66584  43.0001 115.1986 0002658 262.3879  97.6679 15.50522655  4787"}}, "geometry": {"type": "Point", "coordinates": [63.075891122987095, -34.068366520581534]}}, {"type": "Feature", "properties": {"norad_id": 66585, "name": "STARLINK-35963", "group": "last-30-days", "lat": -33.14533877796454, "lon": 65.10930425800694, "alt_km": 415.98927592784094, "timestamp": "2025-12-14T16:47:39.436962+00:00", "meta": {"OBJECT_NAME": "STARLINK-35963", "OBJECT_ID": "2025-268AE", "EPOCH": "2025-12-13T17:50:06.473472", "MEAN_MOTION": 15.50525596, "ECCENTRICITY": 0.00024966, "INCLINATION": 43, "RA_OF_ASC_NODE": 115.1964, "ARG_OF_PERICENTER": 263.661, "MEAN_ANOMALY": 96.3965, "EPHEMERIS_TYPE": 0, "CLASSIFICATION_TYPE": "U", "NORAD_CAT_ID": 66585, "ELEMENT_SET_NO": 999, "REV_AT_EPOCH": 478, "BSTAR": 0.0022870387, "MEAN_MOTION_DOT": 0.00135929, "MEAN_MOTION_DDOT": 0}, "tle": {"line1": "1 66585U 25268AE  25347.74313048  .00135929  00000+0  22870-2 0  9993", "line2": "2 66585  43.0000 115.1964 0002496 263.6610  96.3965 15.50525596  4781"}}, "geometry": {"type": "Point", "coordinates": [65.10930425800694, -33.14533877796454]}}, {"type": "Feature", "properties": {"norad_id": 66586, "name": "TJS-21", "group": "last-30-days", "lat": -47.75599331057237, "lon": 128.40427539697708, "alt_km": 2754.5059210280624, "timestamp": "2025-12-14T16:47:39.436978+00:00", "meta": {"OBJECT_NAME": "TJS-21", "OBJECT_ID": "2025-269A", "EPOCH": "2025-12-10T17:31:22.184832", "MEAN_MOTION": 2.00567425, "ECCENTRICITY": 0.6805766, "INCLINATION": 63.269, "RA_OF_ASC_NODE": 162.5612, "ARG_OF_PERICENTER": 269.7806, "MEAN_ANOMALY": 18.6565, "EPHEMERIS_TYPE": 0, "CLASSIFICATION_TYPE": "U", "NORAD_CAT_ID": 66586, "ELEMENT_SET_NO": 999, "REV_AT_EPOCH": 39, "BSTAR": -0.044965385, "MEAN_MOTION_DOT": 1.083e-05, "MEAN_MOTION_DDOT": 0}, "tle": {"line1": "1 66586U 25269A   25344.73011788  .00001083  00000+0 -44965-1 0  9999", "line2": "2 66586  63.2690 162.5612 6805766 269.7806  18.6565  2.00567425   392"}}, "geometry": {"type": "Point", "coordinates": [128.40427539697708, -47.75599331057237]}}, {"type": "Feature", "properties": {"norad_id": 66587, "name": "CZ-3B R/B", "group": "last-30-days", "lat": -43.20321623428882, "lon": 37.983105906730124, "alt_km": 220.86340613507218, "timestamp": "2025-12-14T16:47:39.436996+00:00", "meta": {"OBJECT_NAME": "CZ-3B R/B", "OBJECT_ID": "2025-269B", "EPOCH": "2025-12-12T18:47:24.789120", "MEAN_MOTION": 2.03336189, "ECCENTRICITY": 0.7518951, "INCLINATION": 51.347, "RA_OF_ASC_NODE": 169.6347, "ARG_OF_PERICENTER": 228.7177, "MEAN_ANOMALY": 37.1847, "EPHEMERIS_TYPE": 0, "CLASSIFICATION_TYPE": "U", "NORAD_CAT_ID": 66587, "ELEMENT_SET_NO": 999, "REV_AT_EPOCH": 45, "BSTAR": 0.00096662605, "MEAN_MOTION_DOT": 0.00067576, "MEAN_MOTION_DDOT": 1.09445e-06}, "tle": {"line1": "1 66587U 25269B   25346.78292580  .00067576  10944-5  96663-3 0  9994", "line2": "2 66587  51.3470 169.6347 7518951 228.7177  37.1847  2.03336189   454"}}, "geometry": {"type": "Point", "coordinates": [37.983105906730124, -43.20321623428882]}}]}